LEGION 1                
1 59625U 24081A   26196.85876775  .00001872  00000+0  98577-4 0  9996
2 59625  97.5011 274.4117 0007716 266.9117  93.1233 15.16846140121888
LEGION 2                
1 59626U 24081B   26196.88916363  .00002058  00000+0  10799-3 0  9994
2 59626  97.5012 274.5386 0010275 230.6141 129.4183 15.16825746121895
LEGION 3                
1 60452U 24146A   26196.60018415  .00001517  00000+0  92046-4 0  9991
2 60452  45.0018 238.2179 0008173 336.2741  23.7759 15.15657172106330
LEGION 4                
1 60453U 24146B   26196.86355569  .00001704  00000+0  10165-3 0  9993
2 60453  45.0029 328.6733 0008969 117.8748 242.3040 15.15684241105222
LEGION 5                
1 62900U 25025A   26196.92950691  .00002172  00000+0  12570-3 0  9995
2 62900  45.0004 147.2786 0008009 293.8017  66.2022 15.15700623 78850
LEGION 6                
1 62901U 25025B   26196.73091712  .00001715  00000+0  10213-3 0  9999
2 62901  45.0015  57.4905 0010815 279.3034  80.6622 15.15689900 79967
