{"fetched_at":"2026-07-16T06:43:06.728Z","source":"https://celestrak.org/NORAD/elements/gp.php?NAME=LEGION&FORMAT=JSON","constellation":"maxar-legion","records":[{"OBJECT_NAME":"LEGION 1","OBJECT_ID":"2024-081A","EPOCH":"2026-07-15T20:36:37.533600","CLASSIFICATION_TYPE":"U","MEAN_MOTION":15.1684614,"ECCENTRICITY":0.00077162,"INCLINATION":97.5011,"RA_OF_ASC_NODE":274.4117,"ARG_OF_PERICENTER":266.9117,"MEAN_ANOMALY":93.1233,"EPHEMERIS_TYPE":0,"NORAD_CAT_ID":59625,"ELEMENT_SET_NO":999,"REV_AT_EPOCH":12188,"BSTAR":0.000098577277,"MEAN_MOTION_DOT":0.00001872,"MEAN_MOTION_DDOT":0},{"OBJECT_NAME":"LEGION 2","OBJECT_ID":"2024-081B","EPOCH":"2026-07-15T21:20:23.737632","CLASSIFICATION_TYPE":"U","MEAN_MOTION":15.16825746,"ECCENTRICITY":0.00102753,"INCLINATION":97.5012,"RA_OF_ASC_NODE":274.5386,"ARG_OF_PERICENTER":230.6141,"MEAN_ANOMALY":129.4183,"EPHEMERIS_TYPE":0,"NORAD_CAT_ID":59626,"ELEMENT_SET_NO":999,"REV_AT_EPOCH":12189,"BSTAR":0.00010798963,"MEAN_MOTION_DOT":0.00002058,"MEAN_MOTION_DDOT":0},{"OBJECT_NAME":"LEGION 3","OBJECT_ID":"2024-146A","EPOCH":"2026-07-15T14:24:15.910560","CLASSIFICATION_TYPE":"U","MEAN_MOTION":15.15657172,"ECCENTRICITY":0.00081739,"INCLINATION":45.0018,"RA_OF_ASC_NODE":238.2179,"ARG_OF_PERICENTER":336.2741,"MEAN_ANOMALY":23.7759,"EPHEMERIS_TYPE":0,"NORAD_CAT_ID":60452,"ELEMENT_SET_NO":999,"REV_AT_EPOCH":10633,"BSTAR":0.000092046137,"MEAN_MOTION_DOT":0.00001517,"MEAN_MOTION_DDOT":0},{"OBJECT_NAME":"LEGION 4","OBJECT_ID":"2024-146B","EPOCH":"2026-07-15T20:43:31.211616","CLASSIFICATION_TYPE":"U","MEAN_MOTION":15.15684241,"ECCENTRICITY":0.00089691,"INCLINATION":45.0029,"RA_OF_ASC_NODE":328.6733,"ARG_OF_PERICENTER":117.8748,"MEAN_ANOMALY":242.304,"EPHEMERIS_TYPE":0,"NORAD_CAT_ID":60453,"ELEMENT_SET_NO":999,"REV_AT_EPOCH":10522,"BSTAR":0.00010165243,"MEAN_MOTION_DOT":0.00001704,"MEAN_MOTION_DDOT":0},{"OBJECT_NAME":"LEGION 5","OBJECT_ID":"2025-025A","EPOCH":"2026-07-15T22:18:29.397024","CLASSIFICATION_TYPE":"U","MEAN_MOTION":15.15700623,"ECCENTRICITY":0.0008009,"INCLINATION":45.0004,"RA_OF_ASC_NODE":147.2786,"ARG_OF_PERICENTER":293.8017,"MEAN_ANOMALY":66.2022,"EPHEMERIS_TYPE":0,"NORAD_CAT_ID":62900,"ELEMENT_SET_NO":999,"REV_AT_EPOCH":7885,"BSTAR":0.00012570077,"MEAN_MOTION_DOT":0.00002172,"MEAN_MOTION_DDOT":0},{"OBJECT_NAME":"LEGION 6","OBJECT_ID":"2025-025B","EPOCH":"2026-07-15T17:32:31.239168","CLASSIFICATION_TYPE":"U","MEAN_MOTION":15.156899,"ECCENTRICITY":0.00108154,"INCLINATION":45.0015,"RA_OF_ASC_NODE":57.4905,"ARG_OF_PERICENTER":279.3034,"MEAN_ANOMALY":80.6622,"EPHEMERIS_TYPE":0,"NORAD_CAT_ID":62901,"ELEMENT_SET_NO":999,"REV_AT_EPOCH":7996,"BSTAR":0.00010213165,"MEAN_MOTION_DOT":0.00001715,"MEAN_MOTION_DDOT":0}]}
